[{"OBJECT_NAME":"TIANMU-1 10","OBJECT_ID":"2023-101D","EPOCH":"2026-03-09T23:06:46.939392","MEAN_MOTION":15.2921896,"ECCENTRICITY":0.00069292,"INCLINATION":97.2749,"RA_OF_ASC_NODE":122.1027,"ARG_OF_PERICENTER":133.6162,"MEAN_ANOMALY":226.5654,"EPHEMERIS_TYPE":0,"CLASSIFICATION_TYPE":"U","NORAD_CAT_ID":57402,"ELEMENT_SET_NO":999,"REV_AT_EPOCH":14647,"BSTAR":0.00032238884,"MEAN_MOTION_DOT":9.075e-5,"MEAN_MOTION_DDOT":0},{"OBJECT_NAME":"STARLINK-30933","OBJECT_ID":"2023-180J","EPOCH":"2026-03-09T14:00:51.710976","MEAN_MOTION":15.27584539,"ECCENTRICITY":3.41e-5,"INCLINATION":42.9954,"RA_OF_ASC_NODE":267.3407,"ARG_OF_PERICENTER":347.1616,"MEAN_ANOMALY":12.9227,"EPHEMERIS_TYPE":0,"CLASSIFICATION_TYPE":"U","NORAD_CAT_ID":58410,"ELEMENT_SET_NO":999,"REV_AT_EPOCH":12932,"BSTAR":-0.00020111,"MEAN_MOTION_DOT":-5.792e-5,"MEAN_MOTION_DDOT":0}]
